[{"OBJECT_NAME":"JILIN-1 KUANFU 01C","OBJECT_ID":"2022-048A","EPOCH":"2026-03-09T22:44:12.026688","MEAN_MOTION":15.09601076,"ECCENTRICITY":0.00140886,"INCLINATION":97.5312,"RA_OF_ASC_NODE":147.8831,"ARG_OF_PERICENTER":308.8335,"MEAN_ANOMALY":51.1636,"EPHEMERIS_TYPE":0,"CLASSIFICATION_TYPE":"U","NORAD_CAT_ID":52443,"ELEMENT_SET_NO":999,"REV_AT_EPOCH":21222,"BSTAR":0.00028577595,"MEAN_MOTION_DOT":4.539e-5,"MEAN_MOTION_DDOT":0},{"OBJECT_NAME":"COSMOS 375 DEB","OBJECT_ID":"1970-091Y","EPOCH":"2026-03-09T16:59:09.666528","MEAN_MOTION":14.26288602,"ECCENTRICITY":0.0427749,"INCLINATION":62.6882,"RA_OF_ASC_NODE":210.7792,"ARG_OF_PERICENTER":160.2239,"MEAN_ANOMALY":201.5993,"EPHEMERIS_TYPE":0,"CLASSIFICATION_TYPE":"U","NORAD_CAT_ID":4727,"ELEMENT_SET_NO":999,"REV_AT_EPOCH":73963,"BSTAR":0.0022516368,"MEAN_MOTION_DOT":0.00014343,"MEAN_MOTION_DDOT":0}]
